QIANFAN-105             
1 66047U 25233Q   25317.56312469  .00000687  00000+0  29078-3 0  9991
2 66047  88.9956  65.3890 0016409 128.4057 231.8612 14.24307955  3880
QIANFAN-106             
1 66048U 25233R   25317.84399426  .00001523  00000+0  65353-3 0  9997
2 66048  88.9951  65.3566 0016207 127.5242 232.7426 14.24239174  3923
QIANFAN-107             
1 66049U 25233S   25317.56227350  .00001504  00000+0  63446-3 0  9993
2 66049  88.9958  65.3879 0017076 127.4003 232.8747 14.25125428  3886
QIANFAN-108             
1 66050U 25233T   25317.63285367  .00000997  00000+0  42579-3 0  9994
2 66050  88.9963  65.3822 0017128 127.5768 232.6983 14.24225409  3899
