<?xml version="1.0" encoding="UTF-8"?>
<ndm xmlns:xsi="http://www.w3.org/2001/XMLSchema-instance" xsi:noNamespaceSchemaLocation="https://sanaregistry.org/r/ndmxml_unqualified/ndmxml-2.0.0-master-2.0.xsd">
<omm id="CCSDS_OMM_VERS" version="2.0">
<header><CREATION_DATE/><ORIGINATOR/></header><body><segment><metadata><OBJECT_NAME>QIANFAN-105</OBJECT_NAME><OBJECT_ID>2025-233Q</OBJECT_ID><CENTER_NAME>EARTH</CENTER_NAME><REF_FRAME>TEME</REF_FRAME><TIME_SYSTEM>UTC</TIME_SYSTEM><MEAN_ELEMENT_THEORY>SGP4</MEAN_ELEMENT_THEORY></metadata><data><meanElements><EPOCH>2025-11-13T13:30:53.973216</EPOCH><MEAN_MOTION>14.24307955</MEAN_MOTION><ECCENTRICITY>.0016409</ECCENTRICITY><INCLINATION>88.9956</INCLINATION><RA_OF_ASC_NODE>65.3890</RA_OF_ASC_NODE><ARG_OF_PERICENTER>128.4057</ARG_OF_PERICENTER><MEAN_ANOMALY>231.8612</MEAN_ANOMALY></meanElements><tleParameters><EPHEMERIS_TYPE>0</EPHEMERIS_TYPE><CLASSIFICATION_TYPE>U</CLASSIFICATION_TYPE><NORAD_CAT_ID>66047</NORAD_CAT_ID><ELEMENT_SET_NO>999</ELEMENT_SET_NO><REV_AT_EPOCH>388</REV_AT_EPOCH><BSTAR>.29078E-3</BSTAR><MEAN_MOTION_DOT>.687E-5</MEAN_MOTION_DOT><MEAN_MOTION_DDOT>0</MEAN_MOTION_DDOT></tleParameters></data></segment></body></omm>
<omm id="CCSDS_OMM_VERS" version="2.0">
<header><CREATION_DATE/><ORIGINATOR/></header><body><segment><metadata><OBJECT_NAME>QIANFAN-106</OBJECT_NAME><OBJECT_ID>2025-233R</OBJECT_ID><CENTER_NAME>EARTH</CENTER_NAME><REF_FRAME>TEME</REF_FRAME><TIME_SYSTEM>UTC</TIME_SYSTEM><MEAN_ELEMENT_THEORY>SGP4</MEAN_ELEMENT_THEORY></metadata><data><meanElements><EPOCH>2025-11-13T20:15:21.104064</EPOCH><MEAN_MOTION>14.24239174</MEAN_MOTION><ECCENTRICITY>.00162072</ECCENTRICITY><INCLINATION>88.9951</INCLINATION><RA_OF_ASC_NODE>65.3566</RA_OF_ASC_NODE><ARG_OF_PERICENTER>127.5242</ARG_OF_PERICENTER><MEAN_ANOMALY>232.7426</MEAN_ANOMALY></meanElements><tleParameters><EPHEMERIS_TYPE>0</EPHEMERIS_TYPE><CLASSIFICATION_TYPE>U</CLASSIFICATION_TYPE><NORAD_CAT_ID>66048</NORAD_CAT_ID><ELEMENT_SET_NO>999</ELEMENT_SET_NO><REV_AT_EPOCH>392</REV_AT_EPOCH><BSTAR>.65352503E-3</BSTAR><MEAN_MOTION_DOT>.1523E-4</MEAN_MOTION_DOT><MEAN_MOTION_DDOT>0</MEAN_MOTION_DDOT></tleParameters></data></segment></body></omm>
<omm id="CCSDS_OMM_VERS" version="2.0">
<header><CREATION_DATE/><ORIGINATOR/></header><body><segment><metadata><OBJECT_NAME>QIANFAN-107</OBJECT_NAME><OBJECT_ID>2025-233S</OBJECT_ID><CENTER_NAME>EARTH</CENTER_NAME><REF_FRAME>TEME</REF_FRAME><TIME_SYSTEM>UTC</TIME_SYSTEM><MEAN_ELEMENT_THEORY>SGP4</MEAN_ELEMENT_THEORY></metadata><data><meanElements><EPOCH>2025-11-13T13:29:40.430400</EPOCH><MEAN_MOTION>14.25125428</MEAN_MOTION><ECCENTRICITY>.0017076</ECCENTRICITY><INCLINATION>88.9958</INCLINATION><RA_OF_ASC_NODE>65.3879</RA_OF_ASC_NODE><ARG_OF_PERICENTER>127.4003</ARG_OF_PERICENTER><MEAN_ANOMALY>232.8747</MEAN_ANOMALY></meanElements><tleParameters><EPHEMERIS_TYPE>0</EPHEMERIS_TYPE><CLASSIFICATION_TYPE>U</CLASSIFICATION_TYPE><NORAD_CAT_ID>66049</NORAD_CAT_ID><ELEMENT_SET_NO>999</ELEMENT_SET_NO><REV_AT_EPOCH>388</REV_AT_EPOCH><BSTAR>.63446E-3</BSTAR><MEAN_MOTION_DOT>.1504E-4</MEAN_MOTION_DOT><MEAN_MOTION_DDOT>0</MEAN_MOTION_DDOT></tleParameters></data></segment></body></omm>
<omm id="CCSDS_OMM_VERS" version="2.0">
<header><CREATION_DATE/><ORIGINATOR/></header><body><segment><metadata><OBJECT_NAME>QIANFAN-108</OBJECT_NAME><OBJECT_ID>2025-233T</OBJECT_ID><CENTER_NAME>EARTH</CENTER_NAME><REF_FRAME>TEME</REF_FRAME><TIME_SYSTEM>UTC</TIME_SYSTEM><MEAN_ELEMENT_THEORY>SGP4</MEAN_ELEMENT_THEORY></metadata><data><meanElements><EPOCH>2025-11-13T15:11:18.557088</EPOCH><MEAN_MOTION>14.24225409</MEAN_MOTION><ECCENTRICITY>.0017128</ECCENTRICITY><INCLINATION>88.9963</INCLINATION><RA_OF_ASC_NODE>65.3822</RA_OF_ASC_NODE><ARG_OF_PERICENTER>127.5768</ARG_OF_PERICENTER><MEAN_ANOMALY>232.6983</MEAN_ANOMALY></meanElements><tleParameters><EPHEMERIS_TYPE>0</EPHEMERIS_TYPE><CLASSIFICATION_TYPE>U</CLASSIFICATION_TYPE><NORAD_CAT_ID>66050</NORAD_CAT_ID><ELEMENT_SET_NO>999</ELEMENT_SET_NO><REV_AT_EPOCH>389</REV_AT_EPOCH><BSTAR>.42579E-3</BSTAR><MEAN_MOTION_DOT>.997E-5</MEAN_MOTION_DOT><MEAN_MOTION_DDOT>0</MEAN_MOTION_DDOT></tleParameters></data></segment></body></omm>
</ndm>
